{"type":"FeatureCollection","features":[{"type":"Feature","properties":{"name":"China","country":"CN","source":"Natural Earth 1:50m; Survey of India ABDB 2025","policy":"Excludes SOI Ladakh and Arunachal Pradesh overlap; organizations do not imply territorial sovereignty.","checkedAt":"2026-09-19"},"geometry":{"type":"MultiPolygon","coordinates":[[[[118.149512,24.436133],[118.090527,24.446143],[118.076758,24.501416],[118.103809,24.552344],[118.183008,24.496289],[118.149512,24.436133]]],[[[121.780469,31.46377],[121.519922,31.549609],[121.336426,31.64375],[121.226855,31.758105],[121.211133,31.805371],[121.338965,31.797363],[121.46416,31.756445],[121.491797,31.693652],[121.576563,31.637305],[121.808301,31.552148],[121.862695,31.492285],[121.780469,31.46377]]],[[[122.281543,29.943848],[122.157813,30.00127],[122.024023,30.01333],[121.977832,30.063818],[121.969434,30.143115],[122.110547,30.139746],[122.284473,30.068018],[122.322266,30.031396],[122.281543,29.943848]]],[[[122.169043,29.660254],[122.042676,29.735937],[122.062305,29.772754],[122.119629,29.782227],[122.169043,29.660254]]],[[[122.394043,29.846094],[122.367578,29.852686],[122.331836,29.934961],[122.350977,29.955225],[122.401563,29.950244],[122.394043,29.846094]]],[[[119.74668,25.410693],[119.700293,25.432715],[119.723047,25.550586],[119.695996,25.590869],[119.722559,25.638818],[119.77793,25.653174],[119.838379,25.591064],[119.809082,25.507812],[119.832422,25.47959],[119.74668,25.410693]]],[[[110.422363,21.058594],[110.521582,21.083105],[110.538867,21.018457],[110.503906,20.967725],[110.421875,21.006885],[110.280957,21.001172],[110.264648,21.025195],[110.309863,21.074756],[110.385156,21.093164],[110.422363,21.058594]]],[[[121.251367,28.086426],[121.131543,28.062598],[121.133984,28.135254],[121.205469,28.204395],[121.250977,28.145215],[121.251367,28.086426]]],[[[113.563672,22.75791],[113.426074,22.858594],[113.404395,22.902832],[113.464941,22.904541],[113.555273,22.804199],[113.563672,22.75791]]],[[[112.771094,21.581836],[112.712695,21.697949],[112.782031,21.772266],[112.839063,21.764502],[112.862598,21.752637],[112.800684,21.694873],[112.771094,21.581836]]],[[[112.64375,21.639648],[112.525,21.623047],[112.558984,21.674756],[112.647656,21.710254],[112.64375,21.639648]]],[[[107.972656,21.507959],[107.759277,21.655029],[107.641016,21.613916],[107.471387,21.59834],[107.433496,21.642285],[107.351172,21.608887],[107.27207,21.710645],[107.178516,21.71709],[107.061621,21.794189],[106.970996,21.923926],[106.925195,21.920117],[106.729492,22.000342],[106.663574,21.978906],[106.654199,22.241455],[106.636523,22.288623],[106.553613,22.341699],[106.536328,22.39541],[106.550391,22.501367],[106.582422,22.573242],[106.701563,22.637744],[106.780273,22.778906],[106.541797,22.90835],[106.279004,22.857471],[106.148438,22.970068],[106.000977,22.974756],[105.962305,22.937451],[105.842969,22.922803],[105.691211,23.029932],[105.548145,23.072656],[105.494531,23.180859],[105.440137,23.235352],[105.275391,23.345215],[105.189063,23.281055],[104.864746,23.136377],[104.826563,23.100195],[104.795703,22.911133],[104.687305,22.822217],[104.526855,22.804102],[104.371777,22.704053],[104.29834,22.712012],[104.2125,22.809424],[104.143066,22.800146],[104.053906,22.752295],[103.99082,22.586133],[103.941504,22.540088],[103.915039,22.538232],[103.620215,22.782031],[103.570703,22.734424],[103.525391,22.611572],[103.492969,22.587988],[103.356055,22.754688],[103.300586,22.764404],[103.137598,22.592969],[103.136328,22.542236],[102.981934,22.448242],[102.935156,22.466162],[102.830078,22.587158],[102.470898,22.750928],[102.406445,22.708008],[102.237012,22.466016],[102.127441,22.379199],[102.024414,22.439209],[101.94541,22.439404],[101.841797,22.388477],[101.759961,22.490332],[101.70752,22.486572],[101.671484,22.462305],[101.619922,22.327441],[101.524512,22.253662],[101.60293,21.989697],[101.736523,21.826514],[101.747266,21.605762],[101.722949,21.314941],[101.802051,21.235986],[101.728125,21.156396],[101.62168,21.184424],[101.542383,21.234277],[101.443555,21.230811],[101.281445,21.184131],[101.247852,21.197314],[101.211816,21.278223],[101.219922,21.342432],[101.175391,21.40752],[101.19668,21.52207],[101.138867,21.56748],[101.130859,21.735547],[101.079785,21.755859],[100.835156,21.655176],[100.677148,21.504932],[100.60459,21.471777],[100.531348,21.458105],[100.350586,21.501025],[100.214746,21.462988],[100.147656,21.480518],[100.089258,21.55791],[100.095508,21.660645],[99.978223,21.701611],[99.940723,21.75874],[99.925586,21.820801],[99.947852,21.98833],[99.917676,22.028027],[99.592676,22.08916],[99.233398,22.110156],[99.173438,22.15332],[99.243066,22.370361],[99.337695,22.498047],[99.338281,22.688672],[99.385156,22.825098],[99.507129,22.959131],[99.464551,23.04624],[99.418066,23.069238],[99.055078,23.130566],[98.86377,23.19126],[98.882617,23.380322],[98.797852,23.52041],[98.832227,23.624365],[98.787695,23.737842],[98.680859,23.841797],[98.676758,23.905078],[98.701563,23.964062],[98.833984,24.090576],[98.835059,24.121191],[98.583398,24.069824],[98.56416,24.098828],[98.499414,24.115674],[98.2125,24.110645],[98.016895,24.06543],[97.686035,23.898096],[97.629687,23.887158],[97.564551,23.911035],[97.568262,23.988477],[97.690625,24.130811],[97.708203,24.22876],[97.666602,24.37998],[97.563281,24.443848],[97.531445,24.491699],[97.529395,24.631201],[97.583301,24.774805],[97.723828,24.841992],[97.737891,24.869873],[97.714941,25.034326],[97.819531,25.251855],[97.917969,25.236133],[98.010742,25.292529],[98.099609,25.415723],[98.142871,25.571094],[98.172559,25.594531],[98.296582,25.568848],[98.333789,25.586768],[98.465527,25.788867],[98.625391,25.826709],[98.65625,25.863574],[98.654688,25.917773],[98.564063,26.072412],[98.571973,26.114062],[98.663184,26.139453],[98.685547,26.189355],[98.671875,26.298535],[98.709473,26.429688],[98.739355,26.698145],[98.651172,27.572461],[98.452539,27.657227],[98.408887,27.639453],[98.350488,27.538086],[98.298828,27.550098],[98.130469,27.967578],[98.098926,28.142285],[97.887598,28.356494],[97.769043,28.356152],[97.658887,28.5],[97.537891,28.510205],[97.33862414830278,28.23533972344228],[97.075391,28.368945],[96.980859,28.337695],[96.91851294622273,28.348113488550467],[96.88967062771503,28.378485621071814],[96.775781,28.367041],[96.74084618062115,28.413813016107753],[96.64113604634731,28.45778532350861],[96.427734,28.406006],[96.389063,28.36792],[96.281445,28.412061],[96.36208100760709,28.480343879178893],[96.32797080648103,28.518339118499053],[96.35118268794824,28.553731592789074],[96.40001364981771,28.559277183866996],[96.40202919571269,28.580945508852007],[96.48731781457323,28.63341190782625],[96.47033088827288,28.66992410971115],[96.4857016894858,28.682961337645676],[96.579307012067,28.71158983696694],[96.60898542464952,28.779832304959864],[96.52608511634801,28.882460508237987],[96.50938421227484,28.96636532807664],[96.47645660981482,28.96365251603253],[96.47022026548913,29.002677721029464],[96.5135847970366,29.07395831094373],[96.32690615659925,29.02801835807473],[96.162207,28.909717],[96.13817617365352,28.932757194838185],[96.17324677641152,28.99171020038633],[96.122363,29.08208],[96.34201237394626,29.1783823694143],[96.38083135044278,29.254607531984878],[96.35430451865186,29.29205331517532],[96.29547485703458,29.254788177190992],[96.220069480789,29.255668472838032],[96.14056856357827,29.402050067400136],[96.06731613727823,29.465947313695867],[95.78180119386326,29.34534926575843],[95.77688063150623,29.361652364709276],[95.58302965190188,29.260614486549873],[95.51582,29.206348],[95.516992,29.151172],[95.48098983345629,29.14307413127327],[95.389258,29.037402],[95.26390367601513,29.055724252618294],[95.24206471242567,29.06458042976372],[95.2417205557501,29.110615035160055],[95.10637501350075,29.11890537434963],[94.99276775375724,29.170764015488707],[94.97528041235928,29.15654324375725],[95.01412251321301,29.144440409306227],[94.79664100031671,29.171505460205793],[94.79300858572822,29.215298291900048],[94.74130213199754,29.274736897480583],[94.63097645589865,29.341236414801042],[94.6193306832518,29.31009541903636],[94.468066,29.216211],[94.43812228974905,29.223193496266287],[94.29365496062128,29.14535274430817],[94.111523,28.975879],[94.017676,28.959521],[94.013281,28.90752],[93.973633,28.860791],[93.760742,28.729785],[93.664941,28.690234],[93.49614673850351,28.68596664086389],[93.251953,28.629492],[93.206543,28.59082],[93.119238,28.402295],[92.881836,28.228125],[92.701855,28.147119],[92.652539,28.093359],[92.643457,28.061523],[92.6875,28.025732],[92.664355,27.948926],[92.42601023652504,27.828228950698442],[92.29030170834437,27.827528068560255],[92.27754015082851,27.869092549109105],[92.21866064280574,27.869514902493275],[91.93901983491753,27.72998404765585],[91.86218545554775,27.739689767664572],[91.8206756644676,27.815961003373065],[91.70130654504419,27.81309028741118],[91.63517432921456,27.857453084854434],[91.641895,27.923242],[91.605566,27.951709],[91.367578,28.021631],[91.273047,28.078369],[91.225879,28.07124],[91.077734,27.974463],[91.020801,27.970068],[90.906641,28.026514],[90.715723,28.071729],[90.352734,28.080225],[90.333105,28.093994],[90.362988,28.216504],[90.348242,28.243945],[90.104492,28.302051],[89.897852,28.294141],[89.816895,28.256299],[89.749805,28.188184],[89.536914,28.107422],[89.480664,28.059961],[89.160449,27.711279],[89.102344,27.592578],[88.947559,27.464014],[88.891406,27.316064],[88.764844,27.429883],[88.749023,27.521875],[88.848828,27.868652],[88.803711,28.006934],[88.621094,28.091846],[88.57793,28.093359],[88.425977,28.01167],[88.141113,27.948926],[88.108984,27.933008],[88.109766,27.870605],[87.860742,27.886084],[87.622559,27.815186],[87.141406,27.83833],[87.020117,27.928662],[86.750391,28.02207],[86.690527,28.094922],[86.614453,28.103027],[86.554492,28.085205],[86.516895,27.963525],[86.408691,27.928662],[86.217969,28.02207],[86.137012,28.114355],[86.078711,28.083594],[86.06416,27.934717],[85.994531,27.9104],[85.954102,27.928223],[85.840234,28.135352],[85.67832,28.277441],[85.410645,28.276025],[85.122461,28.315967],[85.088574,28.372266],[85.159082,28.592236],[85.069141,28.609668],[84.855078,28.553613],[84.796875,28.560205],[84.228711,28.911768],[84.101367,29.219971],[83.935938,29.279492],[83.671094,29.187598],[83.583496,29.183594],[83.355176,29.43916],[83.155469,29.612646],[83.013965,29.618066],[82.854297,29.683398],[82.486523,29.941504],[82.220703,30.063867],[82.158984,30.115186],[82.043359,30.326758],[81.641895,30.3875],[81.417188,30.337598],[81.255078,30.093311],[81.177148,30.039893],[81.110352,30.036816],[81.010254,30.164502],[80.985449,30.237109],[80.682129,30.414844],[80.191211,30.568408],[80.194336,30.759229],[80.149414,30.789844],[80.081445,30.781934],[79.794629,30.968262],[79.56543,30.949072],[79.388477,31.064209],[79.107129,31.402637],[79.04375,31.426221],[79.011133,31.414111],[78.973926,31.328613],[78.757812,31.30249],[78.758594,31.436572],[78.726758,31.471826],[78.80293,31.618066],[78.693457,31.740381],[78.687012,31.805518],[78.735449,31.957959],[78.495898,32.215771],[78.39257097330601,32.51428855825763],[78.42519519469451,32.55917397685697],[78.700879,32.597021],[78.771289,32.468066],[78.97118501662315,32.33569358777011],[78.9959898376717,32.364990220393786],[79.09367983195565,32.37713438011152],[79.13516531665722,32.432298560681296],[79.12504496894444,32.46502265410719],[79.25975137682451,32.522654213375795],[79.30525553639548,32.58582329014049],[79.37299037205182,32.56048243667836],[79.38453337000831,32.52279768159949],[79.42929013029953,32.5235308211204],[79.6096229669049,32.723228196255135],[79.39760399007744,32.96184920575558],[79.32490312238654,33.012241536767675],[79.38032263276045,33.02766984108653],[79.37321698760151,33.10637983855979],[79.44304461117254,33.200360784907645],[79.44611257180766,33.257734694979824],[79.22368286816462,33.29628463294264],[79.10769133123048,33.289112026880254],[78.97842196780265,33.3364096521721],[78.92707797246707,33.454288014513715],[78.94377379075837,33.526069091188184],[78.906259813874,33.57370954615544],[78.90286043522408,33.62201120145986],[79.10015061404052,33.61632402773249],[79.07799577200421,33.686081917301095],[79.04631867830881,33.67383453867118],[79.01610614175891,33.70226392408028],[79.06045450203011,33.77583472685512],[79.01318592646128,33.7829356257823],[78.9183170982964,33.963921795831475],[78.95320932565438,34.01313125013681],[79.00114894135554,34.03360822483649],[79.11265090497778,34.00894457181399],[79.17292876664257,34.05829151121149],[79.37366769663073,34.02675412527791],[79.41550566006603,33.99900597145549],[79.43744996917576,34.01264765727697],[79.42111312070251,34.075939795823196],[79.4959542414474,34.12444899576334],[79.49368608402794,34.18468074635768],[79.54005834405308,34.19130732209025],[79.59213872620731,34.23582011669532],[79.56893697497497,34.400589779815434],[79.53162878906623,34.40875415916933],[79.52215475550531,34.46362185065823],[79.59839275456183,34.48675898357368],[79.79143873084911,34.46675360330597],[79.82104480432602,34.51445548009954],[79.76977587542392,34.5377778075013],[79.79437565329123,34.580540604193864],[79.77660426282954,34.610383780962074],[79.87825965397698,34.67485900528171],[79.9446624961576,34.6609008589829],[80.06531123639259,34.69285774577914],[80.07499516334299,34.80541788310841],[80.18689509400906,35.00799859376606],[80.18503256934862,35.130628277778634],[80.24265702387112,35.20801550973247],[80.29747554933599,35.352868377646175],[80.29848467263422,35.41698831701614],[80.34508361147006,35.46117218167008],[80.31171197213942,35.58795612627232],[80.12889651619597,35.65673282800038],[80.01569235268933,35.82616357856605],[79.96769554738376,35.825181181355504],[79.89895948179878,35.77510864093627],[79.7510905897153,35.79691898983378],[79.4401998129321,35.894083357853916],[79.4103534555518,35.985977349983166],[79.35803111216833,35.99173278685313],[79.23089883918774,35.97216418631756],[79.20449494995924,35.92770244577784],[79.21275983387457,35.87786556934349],[79.16467252908285,35.83818619934389],[79.03224771557694,35.84771722167681],[78.96920489747426,35.890168998473186],[78.8390708557496,35.856116085241474],[78.67331106271783,35.85420353692476],[78.53416402004919,35.762512781396424],[78.44267157831341,35.783642770868376],[78.40386366145306,35.735849330071034],[78.27695029295123,35.71837413963103],[78.28450706408204,35.664490218304024],[78.26561150631584,35.647419330308324],[78.21204885930615,35.665999576357514],[78.19743751896742,35.62283850864355],[78.1698250859828,35.624998211375],[78.16491206701309,35.551736129859464],[78.13676575056142,35.53656839685656],[77.95780845609472,35.60486753160106],[77.96793558629086,35.57176587968789],[77.93751582237557,35.51722028887065],[77.96502695749737,35.47722842031182],[77.92099466430727,35.48794938546208],[77.91207715534868,35.461090034647405],[77.73586585791692,35.5210982648362],[77.724023,35.480566],[77.446484,35.475586],[77.35528823600697,35.49516969802008],[77.33008171168849,35.525699971679266],[77.36197147654939,35.54315526077576],[77.43052180173,35.51367047935135],[77.48276395456145,35.529620723936134],[77.47188083054749,35.58427018988375],[77.44012627078432,35.60213410675742],[77.43793594670825,35.656143670474414],[77.41155654082544,35.65625662236634],[77.36586677366746,35.715187188849534],[77.32106790992941,35.70104809943719],[77.28743720385602,35.7225905361672],[77.25834485553423,35.70432018390436],[77.17967968512366,35.73021848812137],[77.17635571773275,35.768134603891895],[77.11565988152363,35.79810513035286],[77.00100395085254,35.77556010476613],[76.8074801427322,35.84974556642571],[76.73213644814246,35.954636100863866],[76.81368762214146,36.040628777781244],[76.72009158232956,36.09769526800676],[76.71111692784876,36.14012669836729],[76.65592379861029,36.19218419121971],[76.59409381825067,36.17832092520254],[76.48098103284536,36.21973462172426],[76.43678302976896,36.25782946787868],[76.4374999092617,36.31035342354019],[76.35392723348227,36.36944723487807],[76.26650195845231,36.358842963425865],[76.16395310401366,36.40645164510091],[76.09169029413589,36.47462395237555],[75.93478182587357,36.51560772584619],[75.840234,36.649707],[75.46326656331846,36.83031329438914],[75.44981846801072,36.88892910218557],[75.40692084163041,36.90803344751485],[75.41844787269477,36.97239589873506],[75.35442738877958,36.98848285666375],[75.34131369736146,37.060763155030976],[75.2109562495656,37.050016805432946],[75.13154548881027,36.975325309615876],[75.02321798744063,36.9921124424553],[74.889258,36.952441],[74.8347858508493,37.00526426923557],[74.8389018196267,37.035843454223404],[74.769054813293,37.0412219195212],[74.74713668568305,37.02011358984212],[74.7057422205913,37.0878167959683],[74.57363918484491,37.054532313041626],[74.57998911059336,37.03162275278515],[74.526465,37.030664],[74.372168,37.157715],[74.72666,37.290723],[74.767383,37.24917],[74.891309,37.231641],[75.11875,37.385693],[75.097461,37.45127],[74.894238,37.601416],[74.938281,37.77251],[74.900293,37.832715],[74.89082,37.925781],[74.84248,38.038086],[74.789648,38.103613],[74.775098,38.191895],[74.77207,38.274756],[74.835938,38.404297],[74.812305,38.460303],[74.74502,38.51001],[74.514063,38.6],[74.277441,38.659766],[74.131348,38.661182],[74.065332,38.608496],[74.025586,38.539844],[73.869141,38.562891],[73.80166,38.606885],[73.696094,38.854297],[73.72998,38.914697],[73.794531,38.941309],[73.805273,38.968652],[73.607324,39.229199],[73.631641,39.448877],[73.822949,39.488965],[73.907129,39.578516],[73.88252,39.714551],[73.835352,39.800146],[73.991602,40.043115],[74.411914,40.137207],[74.679883,40.310596],[74.830469,40.328516],[74.841797,40.344971],[74.80127,40.428516],[74.835156,40.482617],[74.865625,40.493506],[75.004492,40.449512],[75.111328,40.454102],[75.241016,40.480273],[75.520801,40.627539],[75.555566,40.625195],[75.617383,40.516602],[75.677148,40.305811],[75.871973,40.303223],[76.004297,40.371436],[76.156641,40.376465],[76.258301,40.430762],[76.318555,40.352246],[76.480176,40.449512],[76.57793,40.577881],[76.661133,40.779639],[76.824023,40.982324],[76.907715,41.02417],[76.986621,41.03916],[77.581738,40.992773],[77.815234,41.055615],[78.123438,41.075635],[78.346289,41.281445],[78.362402,41.371631],[78.742578,41.560059],[79.293555,41.782812],[79.354395,41.781055],[79.766113,41.898877],[79.84043,41.995752],[80.235156,42.043457],[80.209375,42.190039],[80.259082,42.2354],[80.255078,42.27417],[80.205762,42.399414],[80.165039,42.665527],[80.250293,42.797266],[80.538965,42.873486],[80.54375,42.911719],[80.383398,42.973779],[80.390234,43.043115],[80.616992,43.128271],[80.751172,43.10249],[80.785742,43.161572],[80.729785,43.274268],[80.667773,43.310059],[80.703809,43.427051],[80.650781,43.56416],[80.495996,43.89209],[80.431543,43.951758],[80.355273,44.097266],[80.365332,44.223291],[80.336328,44.438379],[80.355078,44.552002],[80.391016,44.626807],[80.381445,44.65542],[80.481543,44.714648],[80.455469,44.746094],[80.255078,44.808105],[79.997168,44.797217],[79.875293,44.86084],[79.871875,44.883789],[80.05918,45.006445],[80.634766,45.126514],[80.85332,45.129297],[81.691992,45.349365],[81.758887,45.31084],[81.789648,45.226025],[81.944922,45.16084],[82.266602,45.219092],[82.478711,45.123584],[82.521484,45.125488],[82.596973,45.215967],[82.621094,45.293115],[82.611621,45.424268],[82.32666,45.519922],[82.315234,45.594922],[82.429688,45.811914],[82.555078,46.158691],[82.692187,46.38667],[82.974902,46.966016],[83.029492,47.185937],[83.090332,47.209375],[83.713965,47.021045],[84.016016,46.970508],[84.338867,46.996143],[84.666602,46.972363],[84.719531,46.939355],[84.745996,46.864355],[84.786133,46.830713],[85.012207,46.909229],[85.233496,47.036377],[85.484766,47.063525],[85.656641,47.254639],[85.669824,47.338379],[85.586621,47.493652],[85.525977,47.915625],[85.562305,48.051855],[85.692187,48.311816],[85.749414,48.385059],[85.829883,48.408057],[86.265625,48.454541],[86.549414,48.528613],[86.717969,48.697168],[86.757812,48.860742],[86.728613,48.939355],[86.753125,49.008838],[86.885938,49.090576],[87.22998,49.105859],[87.416699,49.076611],[87.51582,49.122412],[87.814258,49.162305],[87.816309,49.080273],[87.872168,49.000146],[87.859863,48.965527],[87.754687,48.918555],[87.743164,48.881641],[87.831836,48.79165],[88.02793,48.735596],[88.060059,48.707178],[87.972266,48.60332],[87.979688,48.555127],[88.309961,48.47207],[88.413965,48.403418],[88.51709,48.384473],[88.566797,48.317432],[88.575977,48.220166],[88.838281,48.101709],[88.917773,48.089014],[89.047656,48.002539],[89.196289,47.980908],[89.329883,48.024854],[89.479199,48.029053],[89.560938,48.003955],[89.638477,47.909082],[89.778125,47.827002],[89.910449,47.844336],[89.958691,47.886328],[90.02793,47.877686],[90.103223,47.74541],[90.313281,47.676172],[90.425195,47.504102],[90.496191,47.285156],[90.715527,47.003857],[90.869922,46.954492],[90.985742,46.749023],[91.004297,46.595752],[91.028906,46.566064],[91.033887,46.529004],[90.971484,46.387988],[90.918262,46.324268],[90.911523,46.270654],[90.996777,46.10498],[91.001758,46.035791],[90.795898,45.853516],[90.709668,45.730811],[90.661816,45.525244],[90.853223,45.262891],[90.877246,45.196094],[91.05,45.217432],[91.312109,45.118115],[91.441016,45.124756],[91.584375,45.076514],[92.029785,45.068506],[92.423828,45.008936],[92.787891,45.035742],[93.516211,44.944482],[93.656445,44.900977],[93.95791,44.674951],[94.199316,44.645166],[94.364746,44.519482],[94.712012,44.35083],[95.049805,44.259424],[95.350293,44.278076],[95.366797,44.261523],[95.325586,44.039355],[95.356445,44.005957],[95.525586,43.953955],[95.841992,43.383691],[95.85957,43.275977],[95.9125,43.206494],[96.299512,42.928711],[96.34248,42.849316],[96.352344,42.746777],[96.385449,42.720361],[97.205664,42.789795],[99.467871,42.568213],[99.983789,42.677344],[101.091992,42.551318],[101.495313,42.53877],[101.659961,42.500049],[101.972949,42.215869],[102.156641,42.158105],[103.072852,42.005957],[103.711133,41.751318],[104.498242,41.877002],[104.498242,41.658691],[104.860352,41.64375],[104.982031,41.595508],[105.050586,41.615918],[105.19707,41.738037],[105.867578,41.993994],[106.77002,42.288721],[108.171191,42.447314],[108.687305,42.416113],[109.339844,42.438379],[110.400391,42.773682],[111.007227,43.341406],[111.547363,43.496289],[111.771094,43.6646],[111.933203,43.711426],[111.931738,43.814941],[111.836914,43.934668],[111.602637,44.107129],[111.402246,44.367285],[111.410937,44.419189],[111.489453,44.511572],[111.621289,44.827148],[111.751074,44.969531],[111.898047,45.064062],[112.032617,45.081641],[112.411328,45.058203],[112.499316,45.010937],[112.596777,44.917676],[112.706738,44.883447],[113.049414,44.810352],[113.587012,44.745703],[113.877051,44.896191],[114.080273,44.971143],[114.167383,45.049854],[114.419141,45.202588],[114.487305,45.271729],[114.517188,45.3646],[114.560156,45.38999],[114.73877,45.419629],[114.919238,45.378271],[115.162598,45.390234],[115.681055,45.458252],[115.93418,45.626172],[116.197656,45.739355],[116.240625,45.795996],[116.212988,45.886914],[116.357617,46.096582],[116.516699,46.209082],[116.562598,46.289795],[116.859082,46.387939],[116.978809,46.361768],[117.333398,46.362012],[117.405566,46.570898],[117.438086,46.58623],[117.546875,46.588281],[117.671094,46.52207],[117.741211,46.518164],[117.813477,46.537695],[117.910449,46.619336],[118.071289,46.666602],[118.308691,46.717041],[118.722949,46.691895],[118.843945,46.760205],[118.957129,46.734863],[119.162109,46.638672],[119.331836,46.613818],[119.474023,46.62666],[119.706641,46.606006],[119.867188,46.672168],[119.895898,46.732861],[119.897852,46.857812],[119.788477,46.978809],[119.757227,47.090039],[119.711133,47.15],[119.526953,47.255908],[119.325977,47.410156],[119.29082,47.472656],[119.162402,47.525195],[119.122949,47.558496],[119.081934,47.65415],[118.759961,47.757617],[118.498438,47.983984],[118.239648,47.999512],[118.14707,48.028906],[117.768359,47.987891],[117.350781,47.652197],[117.285937,47.666357],[117.069727,47.806396],[116.760547,47.869775],[116.513477,47.839551],[116.231152,47.858203],[116.074805,47.789551],[115.993848,47.711328],[115.898242,47.686914],[115.616406,47.874805],[115.557617,47.94502],[115.525098,48.130859],[115.785547,48.248242],[115.791699,48.455713],[115.820508,48.577246],[115.953809,48.689355],[116.025488,48.782275],[116.034375,48.840039],[116.683301,49.823779],[117.245605,49.624854],[117.477148,49.609424],[117.698438,49.53584],[117.873438,49.513477],[118.451563,49.844482],[118.755957,49.962842],[118.979492,49.978857],[119.147461,50.013379],[119.259863,50.066406],[119.326074,50.154932],[119.346289,50.278955],[119.301562,50.353906],[119.163672,50.406006],[119.216699,50.43252],[119.344043,50.633887],[119.445703,50.702832],[119.501758,50.779248],[119.512305,50.863135],[119.745996,51.107715],[119.756641,51.179492],[119.813184,51.267041],[119.966992,51.422119],[120.066895,51.600684],[120.237012,51.722998],[120.510547,51.848535],[120.681445,51.973047],[120.749805,52.096533],[120.744531,52.205469],[120.66543,52.299902],[120.650391,52.395898],[120.699219,52.493604],[120.656152,52.56665],[120.521094,52.615039],[120.360059,52.627002],[120.172754,52.60249],[120.067578,52.63291],[120.044336,52.718213],[120.094531,52.787207],[120.218164,52.839893],[120.704102,53.171826],[120.985449,53.28457],[121.405469,53.317041],[122.337793,53.48501],[122.380176,53.4625],[122.51582,53.456982],[122.957617,53.497705],[123.154102,53.54458],[123.30957,53.555615],[123.534766,53.526465],[123.607813,53.546533],[124.154297,53.358691],[124.219922,53.370117],[124.465918,53.229639],[124.639844,53.210645],[124.812305,53.133838],[124.882129,53.129736],[124.906641,53.172656],[124.970898,53.197314],[125.075,53.203662],[125.545996,53.047607],[125.649023,53.042285],[125.691699,53.003711],[125.680762,52.930811],[125.728125,52.890723],[125.871875,52.871533],[126.048145,52.739453],[126.060156,52.691992],[126.016016,52.610205],[126.045898,52.57334],[126.194434,52.519141],[126.237598,52.444824],[126.341699,52.362012],[126.324219,52.331641],[126.383496,52.286523],[126.394824,52.172998],[126.455566,52.126465],[126.510547,51.92583],[126.653711,51.781299],[126.700781,51.703027],[126.688672,51.609912],[126.70918,51.566309],[126.774512,51.545068],[126.805469,51.505664],[126.801758,51.448047],[126.847754,51.37417],[126.833789,51.314893],[126.887695,51.230127],[126.924805,51.100146],[127.307031,50.707959],[127.346875,50.621338],[127.347168,50.550098],[127.306055,50.453516],[127.34082,50.428076],[127.337207,50.350146],[127.395313,50.298584],[127.590234,50.208984],[127.512305,50.07168],[127.491797,49.975049],[127.502441,49.873437],[127.550781,49.801807],[127.636719,49.760205],[127.711133,49.671533],[127.999609,49.568604],[128.237109,49.559277],[128.704004,49.600146],[128.769043,49.576953],[128.791016,49.541846],[128.770313,49.494727],[128.819336,49.46377],[129.020313,49.419238],[129.065137,49.374658],[129.248438,49.378662],[129.309863,49.353857],[129.384668,49.389453],[129.498145,49.388818],[129.533691,49.323437],[129.591406,49.28667],[129.671094,49.278516],[129.792578,49.198877],[130.037109,48.972266],[130.195996,48.89165],[130.553125,48.861182],[130.617188,48.773193],[130.565625,48.680127],[130.552148,48.60249],[130.65918,48.483398],[130.746875,48.430371],[130.804297,48.341504],[130.787207,48.25459],[130.712109,48.127637],[130.732617,48.019238],[130.848633,47.929443],[130.91543,47.84292],[130.961914,47.709326],[131.002734,47.691455],[131.319336,47.727832],[131.464258,47.722607],[131.556738,47.682031],[132.380176,47.729492],[132.47627,47.71499],[132.561914,47.768506],[132.636914,47.890088],[132.707227,47.947266],[132.772852,47.940088],[133.144043,48.105664],[133.468359,48.097168],[133.842188,48.27373],[134.293359,48.373437],[134.563574,48.321729],[134.665234,48.253906],[134.669336,48.15332],[134.566016,48.02251],[134.752344,47.71543],[134.695801,47.624854],[134.541895,47.485156],[134.483496,47.447363],[134.29082,47.413574],[134.167676,47.302197],[134.202148,47.128076],[134.136914,47.068994],[134.071387,46.950781],[134.022656,46.713184],[133.866602,46.499121],[133.902734,46.366943],[133.861328,46.247754],[133.700684,46.139746],[133.711133,46.069629],[133.647852,45.955225],[133.513086,45.878809],[133.449121,45.705078],[133.465625,45.651221],[133.436426,45.604687],[133.186035,45.494824],[133.113379,45.321436],[133.096875,45.220459],[133.113477,45.130713],[132.936035,45.029932],[131.977539,45.243994],[131.851855,45.326855],[131.654004,45.205371],[131.578711,45.083643],[131.446875,44.984033],[131.22793,44.920166],[131.082324,44.91001],[130.981641,44.844336],[130.967773,44.799951],[131.086914,44.595654],[131.255273,44.071582],[131.213281,44.00293],[131.174219,43.704736],[131.182422,43.505566],[131.243945,43.469043],[131.257324,43.378076],[131.175586,43.142187],[131.086133,43.038086],[131.068555,42.902246],[130.942871,42.851758],[130.80332,42.856836],[130.577246,42.811621],[130.424805,42.727051],[130.439258,42.685547],[130.520605,42.674316],[130.576563,42.623242],[130.584473,42.567334],[130.526953,42.5354],[130.498242,42.570508],[130.360742,42.630859],[130.24668,42.744824],[130.240332,42.891797],[130.15127,42.917969],[130.082617,42.97417],[130.022266,42.962598],[129.898242,42.998145],[129.861035,42.965088],[129.779199,42.776562],[129.697852,42.448145],[129.603906,42.435889],[129.567578,42.39209],[129.52373,42.384668],[129.423633,42.435889],[129.313672,42.413574],[129.217773,42.312695],[129.195508,42.218457],[128.923438,42.038232],[128.427246,42.010742],[128.307813,42.025635],[128.045215,41.9875],[128.03291,41.898486],[128.181738,41.700049],[128.257812,41.655371],[128.289258,41.607422],[128.290918,41.562793],[128.149414,41.387744],[128.013086,41.448682],[127.687695,41.43999],[127.179688,41.531348],[127.136719,41.554541],[127.128418,41.607422],[127.061328,41.687354],[126.954785,41.769482],[126.903516,41.781055],[126.787695,41.718213],[126.721582,41.716553],[126.60127,41.640967],[126.49043,41.358057],[126.411816,41.321338],[126.253613,41.137793],[126.144531,41.078271],[125.989062,40.904639],[125.72832,40.866699],[125.645117,40.778955],[125.593848,40.778955],[125.416895,40.659912],[125.314453,40.644629],[125.072949,40.547461],[125.025977,40.523877],[124.996875,40.464746],[124.889355,40.459814],[124.386621,40.104248],[124.362109,40.004053],[124.26748,39.92417],[124.105762,39.841016],[123.760156,39.822412],[123.650879,39.881592],[123.580664,39.786133],[123.348145,39.762939],[123.226562,39.686621],[123.032227,39.673535],[122.960938,39.619922],[122.840039,39.60083],[122.334863,39.366113],[122.120898,39.151904],[121.982324,39.053174],[121.864355,38.996484],[121.677246,39.003418],[121.632812,38.954834],[121.67041,38.891797],[121.649902,38.865088],[121.320117,38.808203],[121.163574,38.731641],[121.12168,38.813281],[121.106738,38.920801],[121.679883,39.108691],[121.627637,39.220166],[121.818457,39.386523],[121.275488,39.384766],[121.299805,39.452197],[121.26748,39.544678],[121.406445,39.62124],[121.517578,39.638965],[121.474219,39.754883],[121.517383,39.844824],[121.800977,39.950537],[121.868945,40.046387],[122.190918,40.358252],[122.263867,40.500195],[122.275,40.541846],[122.178711,40.602734],[122.14043,40.688184],[121.858789,40.84209],[121.834863,40.974268],[121.808594,40.968506],[121.729297,40.846143],[121.598926,40.843408],[121.537109,40.878418],[121.174512,40.90127],[120.922266,40.683105],[120.770703,40.589062],[120.479102,40.230957],[119.591113,39.902637],[119.391113,39.75249],[119.261328,39.560889],[119.224609,39.408057],[118.976953,39.182568],[118.752441,39.160498],[118.626367,39.176855],[118.297852,39.06709],[118.147852,39.195068],[118.040918,39.226758],[117.865723,39.19126],[117.784668,39.134473],[117.616699,38.852881],[117.553809,38.691455],[117.557813,38.625146],[117.656055,38.424219],[117.766699,38.31167],[118.014941,38.183398],[118.543262,38.094922],[118.66709,38.126367],[118.8,38.12666],[118.940039,38.042773],[119.027539,37.904004],[119.038477,37.776514],[119.08916,37.700732],[118.99082,37.641357],[118.954883,37.494092],[118.952637,37.331152],[119.111816,37.201172],[119.287402,37.138281],[119.449902,37.124756],[119.760547,37.155078],[119.8875,37.253369],[119.88291,37.35083],[120.155859,37.49502],[120.311523,37.622705],[120.257227,37.679004],[120.75,37.833936],[121.049023,37.725195],[121.219531,37.600146],[121.388086,37.578955],[121.640234,37.460352],[121.964844,37.445312],[122.056641,37.528906],[122.10957,37.522314],[122.169141,37.456152],[122.337695,37.405273],[122.602344,37.426416],[122.666992,37.402832],[122.57334,37.31792],[122.587305,37.181104],[122.44668,37.068115],[122.523438,37.002637],[122.519727,36.946826],[122.340918,36.832227],[122.242285,36.849854],[122.162402,36.958643],[121.932715,36.959473],[121.669629,36.836377],[121.144043,36.660449],[121.053809,36.611377],[120.989941,36.597949],[120.878516,36.635156],[120.81084,36.632812],[120.79668,36.607227],[120.882617,36.538916],[120.895801,36.444141],[120.84707,36.426074],[120.776172,36.456299],[120.711523,36.413281],[120.682227,36.340723],[120.680957,36.168359],[120.637891,36.129932],[120.393066,36.053857],[120.330273,36.110107],[120.327734,36.228174],[120.183301,36.202441],[120.094141,36.118896],[120.181445,36.01748],[120.264746,36.007227],[120.284766,35.984424],[120.054688,35.861133],[119.978711,35.740234],[119.866211,35.643652],[119.719727,35.588721],[119.526465,35.358594],[119.429688,35.301416],[119.352832,35.113818],[119.21582,35.011768],[119.165332,34.848828],[119.200977,34.748437],[119.351367,34.749414],[119.426758,34.71416],[119.58291,34.582227],[119.769727,34.496191],[119.963672,34.447803],[120.266699,34.274023],[120.499805,33.716455],[120.504785,33.638184],[120.615625,33.490527],[120.734473,33.236621],[120.871094,33.016504],[120.897363,32.843213],[120.853027,32.764111],[120.853223,32.661377],[120.989941,32.567041],[121.341699,32.425049],[121.400977,32.371924],[121.403906,32.20625],[121.490527,32.121094],[121.674219,32.051025],[121.751074,31.992871],[121.832422,31.899756],[121.856348,31.816455],[121.866309,31.703564],[121.680859,31.712158],[121.351953,31.858789],[121.145801,31.842334],[120.973535,31.869385],[120.791699,32.031738],[120.520117,32.105859],[120.184082,31.966162],[120.09873,31.975977],[120.035937,31.936279],[120.191602,31.906348],[120.497168,32.019824],[120.715527,31.98374],[120.787793,31.819775],[121.055371,31.719434],[121.204883,31.628076],[121.350977,31.485352],[121.660645,31.319727],[121.785937,31.162891],[121.87793,30.916992],[121.769434,30.870361],[121.527539,30.840967],[121.418945,30.789795],[121.309961,30.699707],[120.997656,30.558252],[120.897461,30.392627],[120.821484,30.354639],[120.62998,30.390869],[120.449805,30.387842],[120.194629,30.241309],[120.260547,30.263037],[120.352539,30.247412],[120.494531,30.303076],[120.633398,30.133154],[120.904492,30.160645],[121.159375,30.301758],[121.258008,30.304102],[121.432715,30.22666],[121.67793,29.979102],[122.08291,29.870361],[121.905762,29.779687],[121.676562,29.583789],[121.50625,29.48457],[121.69043,29.510986],[121.887988,29.627783],[121.941211,29.605908],[121.968359,29.490625],[121.917773,29.13501],[121.853516,29.128906],[121.79082,29.225684],[121.71748,29.256348],[121.533691,29.236719],[121.447656,29.131348],[121.520898,29.118457],[121.664941,29.010596],[121.679688,28.953125],[121.641016,28.915918],[121.540039,28.931885],[121.6625,28.851416],[121.630078,28.76792],[121.519141,28.713672],[121.475195,28.641406],[121.602051,28.366602],[121.609961,28.292139],[121.509961,28.324268],[121.35459,28.229883],[121.272266,28.222119],[121.216797,28.346191],[121.145703,28.32666],[121.098437,28.290527],[120.958594,28.037012],[120.89248,28.003906],[120.747656,28.009961],[120.833008,27.937793],[120.833008,27.891455],[120.685156,27.74458],[120.664844,27.639453],[120.5875,27.580762],[120.629102,27.482129],[120.60752,27.412402],[120.38457,27.155518],[120.278711,27.09707],[120.138574,26.886133],[120.097461,26.780664],[120.086719,26.671582],[119.967773,26.586377],[119.882227,26.610449],[119.879492,26.683008],[119.842383,26.689307],[119.821289,26.736914],[119.824219,26.846387],[119.788672,26.831494],[119.766699,26.774707],[119.710449,26.728662],[119.588184,26.784961],[119.638184,26.621191],[119.725977,26.609424],[119.784766,26.546631],[119.881055,26.33418],[119.692676,26.236426],[119.463086,26.054688],[119.313086,26.062549],[119.139453,26.121777],[119.26377,25.974805],[119.332031,25.94873],[119.417773,25.954346],[119.500879,26.00918],[119.61875,26.003564],[119.648242,25.918701],[119.552832,25.698682],[119.539453,25.59126],[119.622461,25.391162],[119.592773,25.368018],[119.421777,25.459619],[119.180078,25.449805],[119.146289,25.414307],[119.169336,25.355713],[119.243555,25.307031],[119.285547,25.232227],[119.235547,25.205957],[118.977539,25.209277],[118.914453,25.126807],[118.955664,25.004785],[118.909082,24.928906],[118.636914,24.835547],[118.640234,24.809082],[118.719141,24.746143],[118.657031,24.621436],[118.560352,24.580371],[118.412012,24.600732],[118.295313,24.572754],[118.194531,24.62583],[118.087109,24.627002],[118.013867,24.559912],[118.005957,24.481982],[117.842676,24.474316],[117.879004,24.395898],[118.024219,24.379639],[118.056055,24.246094],[117.904102,24.106445],[117.839453,24.012305],[117.741699,24.014795],[117.667871,23.939258],[117.628223,23.836719],[117.579199,23.856982],[117.466406,23.840576],[117.433105,23.791699],[117.462207,23.73623],[117.416992,23.620996],[117.367676,23.588623],[117.330762,23.708789],[117.29082,23.714355],[117.225,23.647021],[117.08252,23.57876],[117.032813,23.623437],[116.910645,23.64668],[116.860938,23.453076],[116.712109,23.360498],[116.629395,23.353857],[116.682324,23.327393],[116.698828,23.277783],[116.669141,23.228174],[116.586426,23.218262],[116.538281,23.179688],[116.519824,23.006592],[116.470703,22.945898],[116.345508,22.941064],[116.251855,22.981348],[116.157422,22.887451],[116.062598,22.879102],[115.852148,22.801563],[115.64043,22.853418],[115.561133,22.824707],[115.49834,22.718848],[115.38252,22.718848],[115.195801,22.817285],[115.091504,22.781689],[115.012109,22.708936],[114.914453,22.684619],[114.896387,22.639502],[114.853809,22.616797],[114.750391,22.626318],[114.711133,22.738721],[114.65166,22.755273],[114.544434,22.620605],[114.554199,22.528906],[114.496191,22.527051],[114.420117,22.583252],[114.340625,22.593213],[114.266016,22.540967],[114.122852,22.56499],[114.01543,22.511914],[113.931152,22.531055],[113.82832,22.607227],[113.754492,22.733643],[113.619629,22.861426],[113.586328,23.02002],[113.620508,23.12749],[113.519727,23.1021],[113.445312,23.055078],[113.460352,22.995703],[113.441895,22.940576],[113.331055,22.912012],[113.344824,22.8646],[113.432031,22.789404],[113.449805,22.726123],[113.553027,22.594043],[113.551465,22.40415],[113.588867,22.350488],[113.549121,22.225195],[113.494141,22.241553],[113.478906,22.195557],[113.327734,22.14541],[113.266406,22.08877],[113.149023,22.075],[113.08877,22.207959],[113.008203,22.119336],[112.983789,21.938232],[112.953906,21.907324],[112.903809,21.881445],[112.808594,21.944629],[112.660742,21.859473],[112.586328,21.776855],[112.421289,21.880615],[112.429297,21.958105],[112.359668,21.978027],[112.389746,21.801221],[112.30498,21.741699],[112.193359,21.763135],[112.025195,21.843018],[111.943945,21.849658],[111.926465,21.77627],[111.873438,21.717139],[111.775977,21.719238],[111.681641,21.608496],[111.602734,21.559082],[111.392383,21.535107],[111.319141,21.486133],[111.100586,21.484717],[111.016895,21.511719],[110.996777,21.430273],[110.771094,21.386523],[110.567187,21.214062],[110.504297,21.207422],[110.458008,21.230566],[110.43457,21.326904],[110.410937,21.338135],[110.374609,21.172363],[110.193555,21.037646],[110.154004,20.944629],[110.180371,20.858594],[110.36543,20.837598],[110.388477,20.790527],[110.313086,20.67168],[110.511523,20.518262],[110.517578,20.46001],[110.449512,20.35542],[110.344727,20.294824],[110.123145,20.263721],[109.938477,20.295117],[109.88252,20.364063],[109.88584,20.413135],[109.983887,20.403271],[109.968359,20.448145],[109.861035,20.514307],[109.791992,20.621875],[109.805273,20.711475],[109.662598,20.916895],[109.704492,21.052734],[109.68125,21.131641],[109.760156,21.228369],[109.77959,21.337451],[109.921094,21.376465],[109.930762,21.480566],[109.82959,21.483594],[109.759375,21.560059],[109.743359,21.527979],[109.686914,21.524609],[109.566406,21.690576],[109.521484,21.693408],[109.544043,21.537939],[109.34668,21.453955],[109.148633,21.425537],[109.081543,21.440283],[109.133496,21.543604],[109.101758,21.590479],[109.030566,21.626514],[108.77168,21.630469],[108.61582,21.770459],[108.589355,21.815967],[108.61582,21.868896],[108.59375,21.901025],[108.479883,21.904639],[108.492578,21.739404],[108.525684,21.671387],[108.502148,21.633447],[108.444336,21.607324],[108.382812,21.679199],[108.324805,21.693506],[108.302148,21.621924],[108.246289,21.558398],[108.145605,21.565186],[107.972656,21.507959]]],[[[91.64540461203947,27.763376735700554],[91.629395,27.800879],[91.63012787498022,27.808053142496355],[91.64540461203947,27.763376735700554]]],[[[110.88877,19.991943],[110.970703,19.883301],[111.013672,19.655469],[110.912695,19.586084],[110.822266,19.55791],[110.640918,19.291211],[110.572168,19.171875],[110.45127,18.747949],[110.399512,18.69834],[110.251758,18.655762],[110.048535,18.505225],[110.067383,18.447559],[110.020215,18.41626],[109.815625,18.39668],[109.702734,18.259131],[109.519336,18.218262],[109.340918,18.299609],[109.029883,18.367773],[108.701563,18.535254],[108.635645,18.907715],[108.665527,19.304102],[108.791016,19.418164],[109.27666,19.761133],[109.177441,19.768457],[109.263477,19.882666],[109.314844,19.904395],[109.418164,19.888818],[109.513672,19.904248],[109.584277,19.970312],[109.651367,19.984375],[109.90625,19.962744],[110.083008,19.99292],[110.171582,20.053711],[110.343945,20.038818],[110.392285,19.975586],[110.393555,20.059229],[110.588184,19.976367],[110.59834,20.097607],[110.651758,20.137744],[110.678516,20.137061],[110.809082,20.014404],[110.88877,19.991943]]]]}}]}
